{
  "type": "FeatureCollection",
  "features": [
    {
      "type": "Feature",
      "properties": { "NOMBRE_DPT": "Boyacá" },
      "geometry": {
        "type": "Polygon",
        "coordinates": [[[-73.5, 6.2], [-72.2, 7.0], [-70.2, 6.3], [-72.0, 4.8], [-73.5, 5.2], [-73.5, 6.2]]]
      }
    },
    {
      "type": "Feature",
      "properties": { "NOMBRE_DPT": "Nariño" },
      "geometry": {
        "type": "Polygon",
        "coordinates": [[[-78.9, 1.5], [-77.8, 2.2], [-76.8, 1.8], [-77.1, 0.4], [-78.8, 1.0], [-78.9, 1.5]]]
      }
    },
    {
      "type": "Feature",
      "properties": { "NOMBRE_DPT": "Cundinamarca" },
      "geometry": {
        "type": "Polygon",
        "coordinates": [[[-74.8, 5.8], [-73.5, 5.2], [-73.1, 4.2], [-74.5, 3.7], [-74.8, 4.8], [-74.8, 5.8]]]
      }
    },
    {
      "type": "Feature",
      "properties": { "NOMBRE_DPT": "Santander" },
      "geometry": {
        "type": "Polygon",
        "coordinates": [[[-74.2, 7.5], [-72.8, 7.4], [-72.5, 6.0], [-73.8, 5.8], [-74.2, 7.5]]]
      }
    },
    {
      "type": "Feature",
      "properties": { "NOMBRE_DPT": "Chocó" },
      "geometry": {
        "type": "Polygon",
        "coordinates": [[[-77.9, 8.1], [-76.8, 8.0], [-76.2, 4.8], [-77.4, 4.2], [-77.9, 8.1]]]
      }
    }
  ]
}
